{
"type": "FeatureCollection",
"features": [
{
"type": "Feature",
"properties": {
"DPTO_CCDGO": "05",
"DPTO_CNMBR": "Antioquia"
},
"geometry": {
"type": "Polygon",
"coordinates": [
[
[
-74.97,
6.25
],
[
-74.98152883175806,
6.367054193209677
],
[
-75.01567228049322,
6.479610059419054
],
[
-75.07111823261846,
6.583342139811761
],
[
-75.14573593128806,
6.674264068711929
],
[
-75.23665786018823,
6.748881767381527
],
[
-75.34038994058093,
6.804327719506772
],
[
-75.45294580679031,
6.838471168241938
],
[
-75.57,
6.85
],
[
-75.68705419320968,
6.838471168241938
],
[
-75.79961005941905,
6.804327719506772
],
[
-75.90334213981176,
6.748881767381527
],
[
-75.99426406871193,
6.674264068711929
],
[
-76.06888176738153,
6.583342139811761
],
[
-76.12432771950677,
6.479610059419054
],
[
-76.15847116824193,
6.367054193209677
],
[
-76.16999999999999,
6.25
],
[
-76.15847116824193,
6.132945806790323
],
[
-76.12432771950677,
6.020389940580946
],
[
-76.06888176738153,
5.916657860188239
],
[
-75.99426406871193,
5.825735931288071
],
[
-75.90334213981176,
5.751118232618473
],
[
-75.79961005941905,
5.695672280493228
],
[
-75.68705419320968,
5.661528831758062
],
[
-75.57,
5.65
],
[
-75.45294580679031,
5.661528831758062
],
[
-75.34038994058093,
5.695672280493228
],
[
-75.23665786018823,
5.751118232618473
],
[
-75.14573593128806,
5.825735931288071
],
[
-75.07111823261846,
5.916657860188239
],
[
-75.01567228049322,
6.020389940580946
],
[
-74.98152883175806,
6.132945806790323
],
[
-74.97,
6.25
]
]
]
}
},
{
"type": "Feature",
"properties": {
"DPTO_CCDGO": "08",
"DPTO_CNMBR": "Atlántico"
},
"geometry": {
"type": "Polygon",
"coordinates": [
[
[
-74.2,
10.96
],
[
-74.21152883175806,
11.077054193209678
],
[
-74.24567228049322,
11.189610059419055
],
[
-74.30111823261846,
11.293342139811763
],
[
-74.37573593128806,
11.384264068711929
],
[
-74.46665786018823,
11.458881767381527
],
[
-74.57038994058094,
11.514327719506772
],
[
-74.68294580679031,
11.548471168241939
],
[
-74.8,
11.56
],
[
-74.91705419320968,
11.548471168241939
],
[
-75.02961005941906,
11.514327719506772
],
[
-75.13334213981176,
11.458881767381529
],
[
-75.22426406871193,
11.384264068711929
],
[
-75.29888176738153,
11.293342139811763
],
[
-75.35432771950677,
11.189610059419055
],
[
-75.38847116824194,
11.077054193209678
],
[
-75.39999999999999,
10.96
],
[
-75.38847116824194,
10.842945806790324
],
[
-75.35432771950677,
10.730389940580947
],
[
-75.29888176738153,
10.62665786018824
],
[
-75.22426406871193,
10.535735931288073
],
[
-75.13334213981176,
10.461118232618475
],
[
-75.02961005941906,
10.40567228049323
],
[
-74.91705419320968,
10.371528831758063
],
[
-74.8,
10.360000000000001
],
[
-74.68294580679031,
10.371528831758063
],
[
-74.57038994058094,
10.40567228049323
],
[
-74.46665786018823,
10.461118232618473
],
[
-74.37573593128806,
10.535735931288071
],
[
-74.30111823261846,
10.626657860188239
],
[
-74.24567228049322,
10.730389940580947
],
[
-74.21152883175806,
10.842945806790324
],
[
-74.2,
10.96
]
]
]
}
},
{
"type": "Feature",
"properties": {
"DPTO_CCDGO": "11",
"DPTO_CNMBR": "Bogotá D.C."
},
"geometry": {
"type": "Polygon",
"coordinates": [
[
[
-73.48,
4.61
],
[
-73.49152883175806,
4.7270541932096775
],
[
-73.52567228049323,
4.839610059419054
],
[
-73.58111823261846,
4.943342139811762
],
[
-73.65573593128806,
5.034264068711929
],
[
-73.74665786018824,
5.108881767381527
],
[
-73.85038994058094,
5.1643277195067725
],
[
-73.96294580679032,
5.198471168241938
],
[
-74.08,
5.21
],
[
-74.19705419320968,
5.198471168241938
],
[
-74.30961005941906,
5.1643277195067725
],
[
-74.41334213981176,
5.108881767381527
],
[
-74.50426406871193,
5.034264068711929
],
[
-74.57888176738153,
4.943342139811762
],
[
-74.63432771950677,
4.839610059419054
],
[
-74.66847116824194,
4.7270541932096775
],
[
-74.67999999999999,
4.61
],
[
-74.66847116824194,
4.492945806790323
],
[
-74.63432771950677,
4.3803899405809466
],
[
-74.57888176738153,
4.276657860188239
],
[
-74.50426406871193,
4.185735931288072
],
[
-74.41334213981176,
4.111118232618473
],
[
-74.30961005941906,
4.055672280493228
],
[
-74.19705419320968,
4.021528831758062
],
[
-74.08,
4.010000000000001
],
[
-73.96294580679032,
4.021528831758062
],
[
-73.85038994058094,
4.055672280493228
],
[
-73.74665786018824,
4.111118232618473
],
[
-73.65573593128806,
4.185735931288072
],
[
-73.58111823261846,
4.276657860188239
],
[
-73.52567228049323,
4.380389940580946
],
[
-73.49152883175806,
4.492945806790323
],
[
-73.48,
4.61
]
]
]
}
},
{
"type": "Feature",
"properties": {
"DPTO_CCDGO": "13",
"DPTO_CNMBR": "Bolívar"
},
"geometry": {
"type": "Polygon",
"coordinates": [
[
[
-74.91000000000001,
10.39
],
[
-74.92152883175807,
10.507054193209678
],
[
-74.95567228049323,
10.619610059419054
],
[
-75.01111823261847,
10.723342139811763
],
[
-75.08573593128807,
10.814264068711928
],
[
-75.17665786018824,
10.888881767381527
],
[
-75.28038994058095,
10.944327719506772
],
[
-75.39294580679032,
10.978471168241938
],
[
-75.51,
10.99
],
[
-75.62705419320969,
10.978471168241938
],
[
-75.73961005941906,
10.944327719506772
],
[
-75.84334213981177,
10.888881767381529
],
[
-75.93426406871194,
10.814264068711928
],
[
-76.00888176738154,
10.723342139811763
],
[
-76.06432771950678,
10.619610059419054
],
[
-76.09847116824194,
10.507054193209678
],
[
-76.11,
10.39
],
[
-76.09847116824194,
10.272945806790323
],
[
-76.06432771950678,
10.160389940580947
],
[
-76.00888176738154,
10.05665786018824
],
[
-75.93426406871194,
9.965735931288073
],
[
-75.84334213981177,
9.891118232618474
],
[
-75.73961005941906,
9.83567228049323
],
[
-75.62705419320969,
9.801528831758063
],
[
-75.51,
9.790000000000001
],
[
-75.39294580679032,
9.801528831758063
],
[
-75.28038994058095,
9.83567228049323
],
[
-75.17665786018824,
9.891118232618473
],
[
-75.08573593128807,
9.965735931288071
],
[
-75.01111823261847,
10.056657860188238
],
[
-74.95567228049323,
10.160389940580947
],
[
-74.92152883175807,
10.272945806790323
],
[
-74.91000000000001,
10.39
]
]
]
}
},
{
"type": "Feature",
"properties": {
"DPTO_CCDGO": "15",
"DPTO_CNMBR": "Boyacá"
},
"geometry": {
"type": "Polygon",
"coordinates": [
[
[
-72.76,
5.54
],
[
-72.77152883175806,
5.657054193209677
],
[
-72.80567228049323,
5.769610059419054
],
[
-72.86111823261847,
5.873342139811761
],
[
-72.93573593128806,
5.964264068711929
],
[
-73.02665786018824,
6.038881767381527
],
[
-73.13038994058094,
6.094327719506772
],
[
-73.24294580679032,
6.128471168241938
],
[
-73.36,
6.14
],
[
-73.47705419320968,
6.128471168241938
],
[
-73.58961005941906,
6.094327719506772
],
[
-73.69334213981176,
6.038881767381527
],
[
-73.78426406871193,
5.964264068711929
],
[
-73.85888176738153,
5.873342139811761
],
[
-73.91432771950677,
5.769610059419054
],
[
-73.94847116824194,
5.657054193209677
],
[
-73.96,
5.54
],
[
-73.94847116824194,
5.422945806790323
],
[
-73.91432771950677,
5.310389940580946
],
[
-73.85888176738153,
5.206657860188239
],
[
-73.78426406871193,
5.1157359312880715
],
[
-73.69334213981176,
5.041118232618473
],
[
-73.58961005941906,
4.985672280493228
],
[
-73.47705419320968,
4.951528831758062
],
[
-73.36,
4.94
],
[
-73.24294580679032,
4.951528831758062
],
[
-73.13038994058094,
4.985672280493228
],
[
-73.02665786018824,
5.041118232618473
],
[
-72.93573593128806,
5.1157359312880715
],
[
-72.86111823261847,
5.206657860188239
],
[
-72.80567228049323,
5.310389940580945
],
[
-72.77152883175806,
5.422945806790323
],
[
-72.76,
5.54
]
]
]
}
},
{
"type": "Feature",
"properties": {
"DPTO_CCDGO": "17",
"DPTO_CNMBR": "Caldas"
},
"geometry": {
"type": "Polygon",
"coordinates": [
[
[
-74.92,
5.07
],
[
-74.93152883175806,
5.187054193209677
],
[
-74.96567228049322,
5.299610059419054
],
[
-75.02111823261846,
5.403342139811762
],
[
-75.09573593128806,
5.494264068711929
],
[
-75.18665786018823,
5.568881767381527
],
[
-75.29038994058094,
5.6243277195067725
],
[
-75.40294580679031,
5.658471168241938
],
[
-75.52,
5.67
],
[
-75.63705419320968,
5.658471168241938
],
[
-75.74961005941906,
5.6243277195067725
],
[
-75.85334213981176,
5.568881767381527
],
[
-75.94426406871193,
5.494264068711929
],
[
-76.01888176738153,
5.403342139811762
],
[
-76.07432771950677,
5.299610059419054
],
[
-76.10847116824193,
5.187054193209677
],
[
-76.11999999999999,
5.07
],
[
-76.10847116824193,
4.952945806790323
],
[
-76.07432771950677,
4.8403899405809465
],
[
-76.01888176738153,
4.736657860188239
],
[
-75.94426406871193,
4.645735931288072
],
[
-75.85334213981176,
4.571118232618473
],
[
-75.74961005941906,
4.515672280493228
],
[
-75.63705419320968,
4.481528831758062
],
[
-75.52,
4.470000000000001
],
[
-75.40294580679031,
4.481528831758062
],
[
-75.29038994058094,
4.515672280493228
],
[
-75.18665786018823,
4.571118232618473
],
[
-75.09573593128806,
4.645735931288072
],
[
-75.02111823261846,
4.736657860188239
],
[
-74.96567228049322,
4.8403899405809465
],
[
-74.93152883175806,
4.952945806790323
],
[
-74.92,
5.07
]
]
]
}
},
{
"type": "Feature",
"properties": {
"DPTO_CCDGO": "18",
"DPTO_CNMBR": "Caquetá"
},
"geometry": {
"type": "Polygon",
"coordinates": [
[
[
-75.01,
1.62
],
[
-75.02152883175806,
1.737054193209677
],
[
-75.05567228049323,
1.8496100594190539
],
[
-75.11111823261847,
1.9533421398117614
],
[
-75.18573593128806,
2.0442640687119287
],
[
-75.27665786018824,
2.1188817673815272
],
[
-75.38038994058094,
2.1743277195067723
],
[
-75.49294580679032,
2.2084711682419385
],
[
-75.61,
2.22
],
[
-75.72705419320968,
2.2084711682419385
],
[
-75.83961005941906,
2.1743277195067723
],
[
-75.94334213981176,
2.1188817673815272
],
[
-76.03426406871193,
2.0442640687119287
],
[
-76.10888176738153,
1.9533421398117614
],
[
-76.16432771950677,
1.849610059419054
],
[
-76.19847116824194,
1.7370541932096772
],
[
-76.21,
1.62
],
[
-76.19847116824194,
1.5029458067903232
],
[
-76.16432771950677,
1.3903899405809463
],
[
-76.10888176738153,
1.286657860188239
],
[
-76.03426406871193,
1.1957359312880715
],
[
-75.94334213981176,
1.121118232618473
],
[
-75.83961005941906,
1.0656722804932284
],
[
-75.72705419320968,
1.031528831758062
],
[
-75.61,
1.02
],
[
-75.49294580679032,
1.0315288317580618
],
[
-75.38038994058094,
1.0656722804932282
],
[
-75.27665786018824,
1.121118232618473
],
[
-75.18573593128806,
1.1957359312880715
],
[
-75.11111823261847,
1.2866578601882388
],
[
-75.05567228049323,
1.390389940580946
],
[
-75.02152883175806,
1.502945806790323
],
[
-75.01,
1.6199999999999999
]
]
]
}
},
{
"type": "Feature",
"properties": {
"DPTO_CCDGO": "19",
"DPTO_CNMBR": "Cauca"
},
"geometry": {
"type": "Polygon",
"coordinates": [
[
[
-76.01,
2.44
],
[
-76.02152883175806,
2.557054193209677
],
[
-76.05567228049323,
2.6696100594190537
],
[
-76.11111823261847,
2.7733421398117613
],
[
-76.18573593128806,
2.8642640687119285
],
[
-76.27665786018824,
2.938881767381527
],
[
-76.38038994058094,
2.994327719506772
],
[
-76.49294580679032,
3.0284711682419383
],
[
-76.61,
3.04
],
[
-76.72705419320968,
3.0284711682419383
],
[
-76.83961005941906,
2.994327719506772
],
[
-76.94334213981176,
2.938881767381527
],
[
-77.03426406871193,
2.8642640687119285
],
[
-77.10888176738153,
2.7733421398117613
],
[
-77.16432771950677,
2.6696100594190537
],
[
-77.19847116824194,
2.557054193209677
],
[
-77.21,
2.44
],
[
-77.19847116824194,
2.322945806790323
],
[
-77.16432771950677,
2.210389940580946
],
[
-77.10888176738153,
2.1066578601882386
],
[
-77.03426406871193,
2.0157359312880714
],
[
-76.94334213981176,
1.9411182326184728
],
[
-76.83961005941906,
1.8856722804932282
],
[
-76.72705419320968,
1.8515288317580618
],
[
-76.61,
1.8399999999999999
],
[
-76.49294580679032,
1.8515288317580616
],
[
-76.38038994058094,
1.885672280493228
],
[
-76.27665786018824,
1.9411182326184728
],
[
-76.18573593128806,
2.0157359312880714
],
[
-76.11111823261847,
2.1066578601882386
],
[
-76.05567228049323,
2.2103899405809457
],
[
-76.02152883175806,
2.322945806790323
],
[
-76.01,
2.44
]
]
]
}
},
{
"type": "Feature",
"properties": {
"DPTO_CCDGO": "20",
"DPTO_CNMBR": "Cesar"
},
"geometry": {
"type": "Polygon",
"coordinates": [
[
[
-72.65,
10.47
],
[
-72.66152883175806,
10.587054193209678
],
[
-72.69567228049323,
10.699610059419054
],
[
-72.75111823261847,
10.803342139811761
],
[
-72.82573593128807,
10.894264068711928
],
[
-72.91665786018824,
10.968881767381529
],
[
-73.02038994058094,
11.024327719506772
],
[
-73.13294580679032,
11.058471168241939
],
[
-73.25,
11.07
],
[
-73.36705419320968,
11.058471168241939
],
[
-73.47961005941906,
11.024327719506772
],
[
-73.58334213981176,
10.968881767381529
],
[
-73.67426406871193,
10.894264068711928
],
[
-73.74888176738153,
10.803342139811761
],
[
-73.80432771950677,
10.699610059419054
],
[
-73.83847116824194,
10.587054193209678
],
[
-73.85,
10.47
],
[
-73.83847116824194,
10.352945806790324
],
[
-73.80432771950677,
10.240389940580947
],
[
-73.74888176738153,
10.13665786018824
],
[
-73.67426406871193,
10.045735931288073
],
[
-73.58334213981176,
9.971118232618473
],
[
-73.47961005941906,
9.91567228049323
],
[
-73.36705419320968,
9.881528831758063
],
[
-73.25,
9.870000000000001
],
[
-73.13294580679032,
9.881528831758063
],
[
-73.02038994058094,
9.91567228049323
],
[
-72.91665786018824,
9.971118232618473
],
[
-72.82573593128807,
10.045735931288071
],
[
-72.75111823261847,
10.13665786018824
],
[
-72.69567228049323,
10.240389940580947
],
[
-72.66152883175806,
10.352945806790324
],
[
-72.65,
10.47
]
]
]
}
},
{
"type": "Feature",
"properties": {
"DPTO_CCDGO": "23",
"DPTO_CNMBR": "Córdoba"
},
"geometry": {
"type": "Polygon",
"coordinates": [
[
[
-75.28,
8.75
],
[
-75.29152883175806,
8.867054193209677
],
[
-75.32567228049322,
8.979610059419054
],
[
-75.38111823261846,
9.083342139811762
],
[
-75.45573593128806,
9.174264068711928
],
[
-75.54665786018823,
9.248881767381526
],
[
-75.65038994058094,
9.304327719506771
],
[
-75.76294580679031,
9.338471168241938
],
[
-75.88,
9.35
],
[
-75.99705419320968,
9.338471168241938
],
[
-76.10961005941905,
9.304327719506771
],
[
-76.21334213981176,
9.248881767381528
],
[
-76.30426406871193,
9.174264068711928
],
[
-76.37888176738153,
9.083342139811762
],
[
-76.43432771950677,
8.979610059419054
],
[
-76.46847116824193,
8.867054193209677
],
[
-76.47999999999999,
8.75
],
[
-76.46847116824193,
8.632945806790323
],
[
-76.43432771950677,
8.520389940580946
],
[
-76.37888176738153,
8.41665786018824
],
[
-76.30426406871193,
8.325735931288072
],
[
-76.21334213981176,
8.251118232618474
],
[
-76.10961005941905,
8.195672280493229
],
[
-75.99705419320968,
8.161528831758062
],
[
-75.88,
8.15
],
[
-75.76294580679031,
8.161528831758062
],
[
-75.65038994058094,
8.195672280493229
],
[
-75.54665786018823,
8.251118232618472
],
[
-75.45573593128806,
8.32573593128807
],
[
-75.38111823261846,
8.416657860188238
],
[
-75.32567228049322,
8.520389940580946
],
[
-75.29152883175806,
8.632945806790323
],
[
-75.28,
8.75
]
]
]
}
},
{
"type": "Feature",
"properties": {
"DPTO_CCDGO": "25",
"DPTO_CNMBR": "Cundinamarca"
},
"geometry": {
"type": "Polygon",
"coordinates": [
[
[
-73.5,
5.03
],
[
-73.51152883175806,
5.147054193209677
],
[
-73.54567228049322,
5.259610059419054
],
[
-73.60111823261846,
5.3633421398117616
],
[
-73.67573593128806,
5.454264068711929
],
[
-73.76665786018823,
5.528881767381527
],
[
-73.87038994058094,
5.584327719506772
],
[
-73.98294580679031,
5.618471168241938
],
[
-74.1,
5.63
],
[
-74.21705419320968,
5.618471168241938
],
[
-74.32961005941905,
5.584327719506772
],
[
-74.43334213981176,
5.528881767381527
],
[
-74.52426406871193,
5.454264068711929
],
[
-74.59888176738153,
5.3633421398117616
],
[
-74.65432771950677,
5.259610059419054
],
[
-74.68847116824193,
5.147054193209677
],
[
-74.69999999999999,
5.03
],
[
-74.68847116824193,
4.912945806790323
],
[
-74.65432771950677,
4.8003899405809465
],
[
-74.59888176738153,
4.696657860188239
],
[
-74.52426406871193,
4.605735931288072
],
[
-74.43334213981176,
4.531118232618473
],
[
-74.32961005941905,
4.475672280493228
],
[
-74.21705419320968,
4.441528831758062
],
[
-74.1,
4.430000000000001
],
[
-73.98294580679031,
4.441528831758062
],
[
-73.87038994058094,
4.475672280493228
],
[
-73.76665786018823,
4.531118232618473
],
[
-73.67573593128806,
4.605735931288072
],
[
-73.60111823261846,
4.696657860188239
],
[
-73.54567228049322,
4.800389940580946
],
[
-73.51152883175806,
4.912945806790323
],
[
-73.5,
5.03
]
]
]
}
},
{
"type": "Feature",
"properties": {
"DPTO_CCDGO": "27",
"DPTO_CNMBR": "Chocó"
},
"geometry": {
"type": "Polygon",
"coordinates": [
[
[
-76.06,
5.69
],
[
-76.07152883175806,
5.8070541932096775
],
[
-76.10567228049322,
5.919610059419054
],
[
-76.16111823261846,
6.023342139811762
],
[
-76.23573593128806,
6.114264068711929
],
[
-76.32665786018823,
6.1888817673815275
],
[
-76.43038994058094,
6.244327719506773
],
[
-76.54294580679031,
6.278471168241938
],
[
-76.66,
6.29
],
[
-76.77705419320968,
6.278471168241938
],
[
-76.88961005941906,
6.244327719506773
],
[
-76.99334213981176,
6.1888817673815275
],
[
-77.08426406871193,
6.114264068711929
],
[
-77.15888176738153,
6.023342139811762
],
[
-77.21432771950677,
5.919610059419054
],
[
-77.24847116824193,
5.8070541932096775
],
[
-77.25999999999999,
5.69
],
[
-77.24847116824193,
5.572945806790323
],
[
-77.21432771950677,
5.460389940580947
],
[
-77.15888176738153,
5.356657860188239
],
[
-77.08426406871193,
5.265735931288072
],
[
-76.99334213981176,
5.191118232618473
],
[
-76.88961005941906,
5.135672280493228
],
[
-76.77705419320968,
5.1015288317580625
],
[
-76.66,
5.090000000000001
],
[
-76.54294580679031,
5.1015288317580625
],
[
-76.43038994058094,
5.135672280493228
],
[
-76.32665786018823,
5.191118232618473
],
[
-76.23573593128806,
5.265735931288072
],
[
-76.16111823261846,
5.356657860188239
],
[
-76.10567228049322,
5.460389940580946
],
[
-76.07152883175806,
5.572945806790323
],
[
-76.06,
5.69
]
]
]
}
},
{
"type": "Feature",
"properties": {
"DPTO_CCDGO": "41",
"DPTO_CNMBR": "Huila"
},
"geometry": {
"type": "Polygon",
"coordinates": [
[
[
-74.68,
2.93
],
[
-74.69152883175806,
3.0470541932096773
],
[
-74.72567228049323,
3.159610059419054
],
[
-74.78111823261847,
3.2633421398117615
],
[
-74.85573593128807,
3.3542640687119287
],
[
-74.94665786018824,
3.4288817673815273
],
[
-75.05038994058094,
3.4843277195067723
],
[
-75.16294580679032,
3.5184711682419385
],
[
-75.28,
3.5300000000000002
],
[
-75.39705419320968,
3.5184711682419385
],
[
-75.50961005941906,
3.4843277195067723
],
[
-75.61334213981176,
3.4288817673815273
],
[
-75.70426406871194,
3.3542640687119287
],
[
-75.77888176738153,
3.2633421398117615
],
[
-75.83432771950677,
3.159610059419054
],
[
-75.86847116824194,
3.0470541932096773
],
[
-75.88,
2.93
],
[
-75.86847116824194,
2.812945806790323
],
[
-75.83432771950677,
2.7003899405809464
],
[
-75.77888176738153,
2.596657860188239
],
[
-75.70426406871194,
2.5057359312880716
],
[
-75.61334213981176,
2.431118232618473
],
[
-75.50961005941906,
2.3756722804932284
],
[
-75.39705419320968,
2.341528831758062
],
[
-75.28,
2.33
],
[
-75.16294580679032,
2.341528831758062
],
[
-75.05038994058094,
2.3756722804932284
],
[
-74.94665786018824,
2.431118232618473
],
[
-74.85573593128807,
2.5057359312880716
],
[
-74.78111823261847,
2.596657860188239
],
[
-74.72567228049323,
2.700389940580946
],
[
-74.69152883175806,
2.812945806790323
],
[
-74.68,
2.93
]
]
]
}
},
{
"type": "Feature",
"properties": {
"DPTO_CCDGO": "44",
"DPTO_CNMBR": "La Guajira"
},
"geometry": {
"type": "Polygon",
"coordinates": [
[
[
-72.31,
11.54
],
[
-72.32152883175806,
11.657054193209676
],
[
-72.35567228049322,
11.769610059419053
],
[
-72.41111823261846,
11.873342139811761
],
[
-72.48573593128806,
11.964264068711927
],
[
-72.57665786018823,
12.038881767381525
],
[
-72.68038994058094,
12.09432771950677
],
[
-72.79294580679031,
12.128471168241937
],
[
-72.91,
12.139999999999999
],
[
-73.02705419320968,
12.128471168241937
],
[
-73.13961005941906,
12.09432771950677
],
[
-73.24334213981176,
12.038881767381527
],
[
-73.33426406871193,
11.964264068711927
],
[
-73.40888176738153,
11.873342139811761
],
[
-73.46432771950677,
11.769610059419053
],
[
-73.49847116824193,
11.657054193209676
],
[
-73.50999999999999,
11.54
],
[
-73.49847116824193,
11.422945806790322
],
[
-73.46432771950677,
11.310389940580945
],
[
-73.40888176738153,
11.206657860188239
],
[
-73.33426406871193,
11.115735931288071
],
[
-73.24334213981176,
11.041118232618473
],
[
-73.13961005941906,
10.985672280493228
],
[
-73.02705419320968,
10.951528831758061
],
[
-72.91,
10.94
],
[
-72.79294580679031,
10.951528831758061
],
[
-72.68038994058094,
10.985672280493228
],
[
-72.57665786018823,
11.041118232618471
],
[
-72.48573593128806,
11.11573593128807
],
[
-72.41111823261846,
11.206657860188237
],
[
-72.35567228049322,
11.310389940580945
],
[
-72.32152883175806,
11.422945806790322
],
[
-72.31,
11.54
]
]
]
}
},
{
"type": "Feature",
"properties": {
"DPTO_CCDGO": "47",
"DPTO_CNMBR": "Magdalena"
},
"geometry": {
"type": "Polygon",
"coordinates": [
[
[
-73.59,
10.42
],
[
-73.60152883175806,
10.537054193209677
],
[
-73.63567228049322,
10.649610059419054
],
[
-73.69111823261846,
10.75334213981176
],
[
-73.76573593128806,
10.844264068711928
],
[
-73.85665786018824,
10.918881767381528
],
[
-73.96038994058094,
10.974327719506771
],
[
-74.07294580679032,
11.008471168241938
],
[
-74.19,
11.02
],
[
-74.30705419320968,
11.008471168241938
],
[
-74.41961005941906,
10.974327719506771
],
[
-74.52334213981176,
10.918881767381528
],
[
-74.61426406871193,
10.844264068711928
],
[
-74.68888176738153,
10.75334213981176
],
[
-74.74432771950677,
10.649610059419054
],
[
-74.77847116824194,
10.537054193209677
],
[
-74.78999999999999,
10.42
],
[
-74.77847116824194,
10.302945806790323
],
[
-74.74432771950677,
10.190389940580946
],
[
-74.68888176738153,
10.08665786018824
],
[
-74.61426406871193,
9.995735931288072
],
[
-74.52334213981176,
9.921118232618472
],
[
-74.41961005941906,
9.865672280493229
],
[
-74.30705419320968,
9.831528831758062
],
[
-74.19,
9.82
],
[
-74.07294580679032,
9.831528831758062
],
[
-73.96038994058094,
9.865672280493229
],
[
-73.85665786018824,
9.921118232618472
],
[
-73.76573593128806,
9.99573593128807
],
[
-73.69111823261846,
10.08665786018824
],
[
-73.63567228049322,
10.190389940580946
],
[
-73.60152883175806,
10.302945806790323
],
[
-73.59,
10.42
]
]
]
}
},
{
"type": "Feature",
"properties": {
"DPTO_CCDGO": "50",
"DPTO_CNMBR": "Meta"
},
"geometry": {
"type": "Polygon",
"coordinates": [
[
[
-73.03,
4.15
],
[
-73.04152883175806,
4.2670541932096775
],
[
-73.07567228049322,
4.379610059419054
],
[
-73.13111823261846,
4.483342139811762
],
[
-73.20573593128806,
4.574264068711929
],
[
-73.29665786018823,
4.6488817673815275
],
[
-73.40038994058094,
4.7043277195067725
],
[
-73.51294580679031,
4.738471168241938
],
[
-73.63,
4.75
],
[
-73.74705419320968,
4.738471168241938
],
[
-73.85961005941905,
4.7043277195067725
],
[
-73.96334213981176,
4.6488817673815275
],
[
-74.05426406871193,
4.574264068711929
],
[
-74.12888176738153,
4.483342139811762
],
[
-74.18432771950677,
4.379610059419054
],
[
-74.21847116824193,
4.2670541932096775
],
[
-74.22999999999999,
4.15
],
[
-74.21847116824193,
4.032945806790323
],
[
-74.18432771950677,
3.9203899405809466
],
[
-74.12888176738153,
3.816657860188239
],
[
-74.05426406871193,
3.725735931288072
],
[
-73.96334213981176,
3.6511182326184732
],
[
-73.85961005941905,
3.5956722804932286
],
[
-73.74705419320968,
3.5615288317580625
],
[
-73.63,
3.5500000000000003
],
[
-73.51294580679031,
3.561528831758062
],
[
-73.40038994058094,
3.595672280493228
],
[
-73.29665786018823,
3.6511182326184732
],
[
-73.20573593128806,
3.725735931288072
],
[
-73.13111823261846,
3.816657860188239
],
[
-73.07567228049322,
3.920389940580946
],
[
-73.04152883175806,
4.032945806790323
],
[
-73.03,
4.15
]
]
]
}
},
{
"type": "Feature",
"properties": {
"DPTO_CCDGO": "52",
"DPTO_CNMBR": "Nariño"
},
"geometry": {
"type": "Polygon",
"coordinates": [
[
[
-76.68,
1.21
],
[
-76.69152883175806,
1.3270541932096769
],
[
-76.72567228049323,
1.4396100594190537
],
[
-76.78111823261847,
1.5433421398117613
],
[
-76.85573593128807,
1.6342640687119285
],
[
-76.94665786018824,
1.708881767381527
],
[
-77.05038994058094,
1.7643277195067721
],
[
-77.16294580679032,
1.7984711682419383
],
[
-77.28,
1.81
],
[
-77.39705419320968,
1.7984711682419383
],
[
-77.50961005941906,
1.7643277195067721
],
[
-77.61334213981176,
1.708881767381527
],
[
-77.70426406871194,
1.6342640687119285
],
[
-77.77888176738153,
1.5433421398117613
],
[
-77.83432771950677,
1.439610059419054
],
[
-77.86847116824194,
1.327054193209677
],
[
-77.88,
1.21
],
[
-77.86847116824194,
1.092945806790323
],
[
-77.83432771950677,
0.9803899405809462
],
[
-77.77888176738153,
0.8766578601882389
],
[
-77.70426406871194,
0.7857359312880715
],
[
-77.61334213981176,
0.7111182326184728
],
[
-77.50961005941906,
0.6556722804932281
],
[
-77.39705419320968,
0.6215288317580618
],
[
-77.28,
0.61
],
[
-77.16294580679032,
0.6215288317580617
],
[
-77.05038994058094,
0.655672280493228
],
[
-76.94665786018824,
0.7111182326184727
],
[
-76.85573593128807,
0.7857359312880714
],
[
-76.78111823261847,
0.8766578601882387
],
[
-76.72567228049323,
0.9803899405809458
],
[
-76.69152883175806,
1.0929458067903228
],
[
-76.68,
1.2099999999999997
]
]
]
}
},
{
"type": "Feature",
"properties": {
"DPTO_CCDGO": "54",
"DPTO_CNMBR": "Norte de Santander"
},
"geometry": {
"type": "Polygon",
"coordinates": [
[
[
-71.9,
7.89
],
[
-71.91152883175806,
8.007054193209676
],
[
-71.94567228049323,
8.119610059419054
],
[
-72.00111823261847,
8.223342139811761
],
[
-72.07573593128807,
8.314264068711928
],
[
-72.16665786018824,
8.388881767381527
],
[
-72.27038994058094,
8.444327719506772
],
[
-72.38294580679032,
8.478471168241938
],
[
-72.5,
8.49
],
[
-72.61705419320968,
8.478471168241938
],
[
-72.72961005941906,
8.444327719506772
],
[
-72.83334213981176,
8.388881767381527
],
[
-72.92426406871193,
8.314264068711928
],
[
-72.99888176738153,
8.223342139811761
],
[
-73.05432771950677,
8.119610059419054
],
[
-73.08847116824194,
8.007054193209678
],
[
-73.1,
7.89
],
[
-73.08847116824194,
7.7729458067903225
],
[
-73.05432771950677,
7.660389940580946
],
[
-72.99888176738153,
7.556657860188238
],
[
-72.92426406871193,
7.465735931288071
],
[
-72.83334213981176,
7.391118232618473
],
[
-72.72961005941906,
7.3356722804932275
],
[
-72.61705419320968,
7.301528831758062
],
[
-72.5,
7.29
],
[
-72.38294580679032,
7.301528831758062
],
[
-72.27038994058094,
7.3356722804932275
],
[
-72.16665786018824,
7.391118232618473
],
[
-72.07573593128807,
7.465735931288071
],
[
-72.00111823261847,
7.556657860188238
],
[
-71.94567228049323,
7.660389940580945
],
[
-71.91152883175806,
7.7729458067903225
],
[
-71.9,
7.89
]
]
]
}
},
{
"type": "Feature",
"properties": {
"DPTO_CCDGO": "63",
"DPTO_CNMBR": "Quindío"
},
"geometry": {
"type": "Polygon",
"coordinates": [
[
[
-75.08000000000001,
4.53
],
[
-75.09152883175807,
4.647054193209677
],
[
-75.12567228049323,
4.759610059419054
],
[
-75.18111823261847,
4.8633421398117616
],
[
-75.25573593128807,
4.954264068711929
],
[
-75.34665786018824,
5.028881767381527
],
[
-75.45038994058095,
5.084327719506772
],
[
-75.56294580679032,
5.118471168241938
],
[
-75.68,
5.13
],
[
-75.79705419320969,
5.118471168241938
],
[
-75.90961005941907,
5.084327719506772
],
[
-76.01334213981177,
5.028881767381527
],
[
-76.10426406871194,
4.954264068711929
],
[
-76.17888176738154,
4.8633421398117616
],
[
-76.23432771950678,
4.759610059419054
],
[
-76.26847116824194,
4.647054193209677
],
[
-76.28,
4.53
],
[
-76.26847116824194,
4.412945806790323
],
[
-76.23432771950678,
4.3003899405809465
],
[
-76.17888176738154,
4.196657860188239
],
[
-76.10426406871194,
4.105735931288072
],
[
-76.01334213981177,
4.031118232618473
],
[
-75.90961005941907,
3.9756722804932285
],
[
-75.79705419320969,
3.9415288317580623
],
[
-75.68,
3.93
],
[
-75.56294580679032,
3.941528831758062
],
[
-75.45038994058095,
3.975672280493228
],
[
-75.34665786018824,
4.031118232618473
],
[
-75.25573593128807,
4.105735931288072
],
[
-75.18111823261847,
4.196657860188239
],
[
-75.12567228049323,
4.300389940580946
],
[
-75.09152883175807,
4.412945806790323
],
[
-75.08000000000001,
4.53
]
]
]
}
},
{
"type": "Feature",
"properties": {
"DPTO_CCDGO": "66",
"DPTO_CNMBR": "Risaralda"
},
"geometry": {
"type": "Polygon",
"coordinates": [
[
[
-75.09,
4.81
],
[
-75.10152883175806,
4.927054193209677
],
[
-75.13567228049322,
5.039610059419053
],
[
-75.19111823261846,
5.143342139811761
],
[
-75.26573593128806,
5.234264068711928
],
[
-75.35665786018824,
5.308881767381527
],
[
-75.46038994058094,
5.364327719506772
],
[
-75.57294580679032,
5.3984711682419375
],
[
-75.69,
5.409999999999999
],
[
-75.80705419320968,
5.3984711682419375
],
[
-75.91961005941906,
5.364327719506772
],
[
-76.02334213981176,
5.308881767381527
],
[
-76.11426406871193,
5.234264068711928
],
[
-76.18888176738153,
5.143342139811761
],
[
-76.24432771950677,
5.039610059419053
],
[
-76.27847116824194,
4.927054193209677
],
[
-76.28999999999999,
4.81
],
[
-76.27847116824194,
4.6929458067903225
],
[
-76.24432771950677,
4.580389940580946
],
[
-76.18888176738153,
4.476657860188238
],
[
-76.11426406871193,
4.385735931288071
],
[
-76.02334213981176,
4.3111182326184725
],
[
-75.91961005941906,
4.255672280493227
],
[
-75.80705419320968,
4.221528831758062
],
[
-75.69,
4.21
],
[
-75.57294580679032,
4.221528831758062
],
[
-75.46038994058094,
4.255672280493227
],
[
-75.35665786018824,
4.3111182326184725
],
[
-75.26573593128806,
4.385735931288071
],
[
-75.19111823261846,
4.476657860188238
],
[
-75.13567228049322,
4.580389940580945
],
[
-75.10152883175806,
4.6929458067903225
],
[
-75.09,
4.81
]
]
]
}
},
{
"type": "Feature",
"properties": {
"DPTO_CCDGO": "68",
"DPTO_CNMBR": "Santander"
},
"geometry": {
"type": "Polygon",
"coordinates": [
[
[
-72.52000000000001,
7.12
],
[
-72.53152883175807,
7.237054193209677
],
[
-72.56567228049323,
7.349610059419054
],
[
-72.62111823261847,
7.453342139811761
],
[
-72.69573593128807,
7.544264068711929
],
[
-72.78665786018824,
7.618881767381527
],
[
-72.89038994058095,
7.674327719506772
],
[
-73.00294580679032,
7.708471168241938
],
[
-73.12,
7.72
],
[
-73.23705419320969,
7.708471168241938
],
[
-73.34961005941906,
7.674327719506772
],
[
-73.45334213981177,
7.618881767381527
],
[
-73.54426406871194,
7.544264068711929
],
[
-73.61888176738154,
7.453342139811761
],
[
-73.67432771950678,
7.349610059419054
],
[
-73.70847116824194,
7.237054193209677
],
[
-73.72,
7.12
],
[
-73.70847116824194,
7.002945806790323
],
[
-73.67432771950678,
6.890389940580946
],
[
-73.61888176738154,
6.786657860188239
],
[
-73.54426406871194,
6.6957359312880715
],
[
-73.45334213981177,
6.621118232618473
],
[
-73.34961005941906,
6.565672280493228
],
[
-73.23705419320969,
6.531528831758062
],
[
-73.12,
6.5200000000000005
],
[
-73.00294580679032,
6.531528831758062
],
[
-72.89038994058095,
6.565672280493228
],
[
-72.78665786018824,
6.621118232618473
],
[
-72.69573593128807,
6.6957359312880715
],
[
-72.62111823261847,
6.786657860188239
],
[
-72.56567228049323,
6.8903899405809454
],
[
-72.53152883175807,
7.002945806790323
],
[
-72.52000000000001,
7.12
]
]
]
}
},
{
"type": "Feature",
"properties": {
"DPTO_CCDGO": "70",
"DPTO_CNMBR": "Sucre"
},
"geometry": {
"type": "Polygon",
"coordinates": [
[
[
-74.80000000000001,
9.3
],
[
-74.81152883175807,
9.417054193209678
],
[
-74.84567228049323,
9.529610059419054
],
[
-74.90111823261847,
9.633342139811763
],
[
-74.97573593128807,
9.724264068711928
],
[
-75.06665786018824,
9.798881767381527
],
[
-75.17038994058095,
9.854327719506772
],
[
-75.28294580679032,
9.888471168241939
],
[
-75.4,
9.9
],
[
-75.51705419320969,
9.888471168241939
],
[
-75.62961005941906,
9.854327719506772
],
[
-75.73334213981177,
9.798881767381529
],
[
-75.82426406871194,
9.724264068711928
],
[
-75.89888176738154,
9.633342139811763
],
[
-75.95432771950678,
9.529610059419054
],
[
-75.98847116824194,
9.417054193209678
],
[
-76.0,
9.3
],
[
-75.98847116824194,
9.182945806790324
],
[
-75.95432771950678,
9.070389940580947
],
[
-75.89888176738154,
8.96665786018824
],
[
-75.82426406871194,
8.875735931288073
],
[
-75.73334213981177,
8.801118232618474
],
[
-75.62961005941906,
8.74567228049323
],
[
-75.51705419320969,
8.711528831758063
],
[
-75.4,
8.700000000000001
],
[
-75.28294580679032,
8.711528831758063
],
[
-75.17038994058095,
8.74567228049323
],
[
-75.06665786018824,
8.801118232618473
],
[
-74.97573593128807,
8.875735931288071
],
[
-74.90111823261847,
8.966657860188239
],
[
-74.84567228049323,
9.070389940580947
],
[
-74.81152883175807,
9.182945806790324
],
[
-74.80000000000001,
9.3
]
]
]
}
},
{
"type": "Feature",
"properties": {
"DPTO_CCDGO": "73",
"DPTO_CNMBR": "Tolima"
},
"geometry": {
"type": "Polygon",
"coordinates": [
[
[
-74.63000000000001,
4.44
],
[
-74.64152883175807,
4.5570541932096775
],
[
-74.67567228049323,
4.669610059419054
],
[
-74.73111823261847,
4.773342139811762
],
[
-74.80573593128807,
4.864264068711929
],
[
-74.89665786018824,
4.9388817673815275
],
[
-75.00038994058094,
4.994327719506773
],
[
-75.11294580679032,
5.028471168241938
],
[
-75.23,
5.04
],
[
-75.34705419320969,
5.028471168241938
],
[
-75.45961005941906,
4.994327719506773
],
[
-75.56334213981177,
4.9388817673815275
],
[
-75.65426406871194,
4.864264068711929
],
[
-75.72888176738154,
4.773342139811762
],
[
-75.78432771950678,
4.669610059419054
],
[
-75.81847116824194,
4.5570541932096775
],
[
-75.83,
4.44
],
[
-75.81847116824194,
4.322945806790323
],
[
-75.78432771950678,
4.210389940580947
],
[
-75.72888176738154,
4.106657860188239
],
[
-75.65426406871194,
4.015735931288072
],
[
-75.56334213981177,
3.9411182326184733
],
[
-75.45961005941906,
3.8856722804932287
],
[
-75.34705419320969,
3.8515288317580625
],
[
-75.23,
3.8400000000000003
],
[
-75.11294580679032,
3.851528831758062
],
[
-75.00038994058094,
3.885672280493228
],
[
-74.89665786018824,
3.9411182326184733
],
[
-74.80573593128807,
4.015735931288072
],
[
-74.73111823261847,
4.106657860188239
],
[
-74.67567228049323,
4.210389940580946
],
[
-74.64152883175807,
4.322945806790323
],
[
-74.63000000000001,
4.44
]
]
]
}
},
{
"type": "Feature",
"properties": {
"DPTO_CCDGO": "76",
"DPTO_CNMBR": "Valle del Cauca"
},
"geometry": {
"type": "Polygon",
"coordinates": [
[
[
-75.92,
3.44
],
[
-75.93152883175806,
3.557054193209677
],
[
-75.96567228049322,
3.6696100594190537
],
[
-76.02111823261846,
3.7733421398117613
],
[
-76.09573593128806,
3.8642640687119285
],
[
-76.18665786018823,
3.938881767381527
],
[
-76.29038994058094,
3.994327719506772
],
[
-76.40294580679031,
4.028471168241938
],
[
-76.52,
4.04
],
[
-76.63705419320968,
4.028471168241938
],
[
-76.74961005941906,
3.994327719506772
],
[
-76.85334213981176,
3.938881767381527
],
[
-76.94426406871193,
3.8642640687119285
],
[
-77.01888176738153,
3.7733421398117613
],
[
-77.07432771950677,
3.6696100594190537
],
[
-77.10847116824193,
3.557054193209677
],
[
-77.11999999999999,
3.44
],
[
-77.10847116824193,
3.322945806790323
],
[
-77.07432771950677,
3.210389940580946
],
[
-77.01888176738153,
3.1066578601882386
],
[
-76.94426406871193,
3.0157359312880714
],
[
-76.85334213981176,
2.941118232618473
],
[
-76.74961005941906,
2.885672280493228
],
[
-76.63705419320968,
2.8515288317580616
],
[
-76.52,
2.84
],
[
-76.40294580679031,
2.8515288317580616
],
[
-76.29038994058094,
2.885672280493228
],
[
-76.18665786018823,
2.941118232618473
],
[
-76.09573593128806,
3.0157359312880714
],
[
-76.02111823261846,
3.1066578601882386
],
[
-75.96567228049322,
3.2103899405809457
],
[
-75.93152883175806,
3.322945806790323
],
[
-75.92,
3.44
]
]
]
}
},
{
"type": "Feature",
"properties": {
"DPTO_CCDGO": "81",
"DPTO_CNMBR": "Arauca"
},
"geometry": {
"type": "Polygon",
"coordinates": [
[
[
-70.16000000000001,
7.08
],
[
-70.17152883175807,
7.197054193209677
],
[
-70.20567228049323,
7.309610059419054
],
[
-70.26111823261847,
7.413342139811761
],
[
-70.33573593128807,
7.504264068711929
],
[
-70.42665786018824,
7.578881767381527
],
[
-70.53038994058095,
7.634327719506772
],
[
-70.64294580679032,
7.668471168241938
],
[
-70.76,
7.68
],
[
-70.87705419320969,
7.668471168241938
],
[
-70.98961005941906,
7.634327719506772
],
[
-71.09334213981177,
7.578881767381527
],
[
-71.18426406871194,
7.504264068711929
],
[
-71.25888176738154,
7.413342139811761
],
[
-71.31432771950678,
7.309610059419054
],
[
-71.34847116824194,
7.197054193209677
],
[
-71.36,
7.08
],
[
-71.34847116824194,
6.962945806790323
],
[
-71.31432771950678,
6.850389940580946
],
[
-71.25888176738154,
6.746657860188239
],
[
-71.18426406871194,
6.6557359312880715
],
[
-71.09334213981177,
6.581118232618473
],
[
-70.98961005941906,
6.525672280493228
],
[
-70.87705419320969,
6.491528831758062
],
[
-70.76,
6.48
],
[
-70.64294580679032,
6.491528831758062
],
[
-70.53038994058095,
6.525672280493228
],
[
-70.42665786018824,
6.581118232618473
],
[
-70.33573593128807,
6.6557359312880715
],
[
-70.26111823261847,
6.746657860188239
],
[
-70.20567228049323,
6.850389940580946
],
[
-70.17152883175807,
6.962945806790323
],
[
-70.16000000000001,
7.08
]
]
]
}
},
{
"type": "Feature",
"properties": {
"DPTO_CCDGO": "85",
"DPTO_CNMBR": "Casanare"
},
"geometry": {
"type": "Polygon",
"coordinates": [
[
[
-71.79,
5.33
],
[
-71.80152883175806,
5.447054193209677
],
[
-71.83567228049323,
5.559610059419054
],
[
-71.89111823261847,
5.663342139811761
],
[
-71.96573593128807,
5.754264068711929
],
[
-72.05665786018824,
5.828881767381527
],
[
-72.16038994058094,
5.884327719506772
],
[
-72.27294580679032,
5.918471168241938
],
[
-72.39,
5.93
],
[
-72.50705419320968,
5.918471168241938
],
[
-72.61961005941906,
5.884327719506772
],
[
-72.72334213981176,
5.828881767381527
],
[
-72.81426406871194,
5.754264068711929
],
[
-72.88888176738153,
5.663342139811761
],
[
-72.94432771950677,
5.559610059419054
],
[
-72.97847116824194,
5.447054193209677
],
[
-72.99,
5.33
],
[
-72.97847116824194,
5.212945806790323
],
[
-72.94432771950677,
5.100389940580946
],
[
-72.88888176738153,
4.996657860188239
],
[
-72.81426406871194,
4.9057359312880715
],
[
-72.72334213981176,
4.831118232618473
],
[
-72.61961005941906,
4.775672280493228
],
[
-72.50705419320968,
4.741528831758062
],
[
-72.39,
4.73
],
[
-72.27294580679032,
4.741528831758062
],
[
-72.16038994058094,
4.775672280493228
],
[
-72.05665786018824,
4.831118232618473
],
[
-71.96573593128807,
4.9057359312880715
],
[
-71.89111823261847,
4.996657860188239
],
[
-71.83567228049323,
5.100389940580946
],
[
-71.80152883175806,
5.212945806790323
],
[
-71.79,
5.33
]
]
]
}
},
{
"type": "Feature",
"properties": {
"DPTO_CCDGO": "86",
"DPTO_CNMBR": "Putumayo"
},
"geometry": {
"type": "Polygon",
"coordinates": [
[
[
-75.92,
0.44
],
[
-75.93152883175806,
0.557054193209677
],
[
-75.96567228049322,
0.6696100594190538
],
[
-76.02111823261846,
0.7733421398117613
],
[
-76.09573593128806,
0.8642640687119285
],
[
-76.18665786018823,
0.9388817673815271
],
[
-76.29038994058094,
0.9943277195067721
],
[
-76.40294580679031,
1.0284711682419383
],
[
-76.52,
1.04
],
[
-76.63705419320968,
1.0284711682419383
],
[
-76.74961005941906,
0.9943277195067721
],
[
-76.85334213981176,
0.9388817673815273
],
[
-76.94426406871193,
0.8642640687119285
],
[
-77.01888176738153,
0.7733421398117613
],
[
-77.07432771950677,
0.6696100594190539
],
[
-77.10847116824193,
0.5570541932096772
],
[
-77.11999999999999,
0.44000000000000006
],
[
-77.10847116824193,
0.322945806790323
],
[
-77.07432771950677,
0.2103899405809462
],
[
-77.01888176738153,
0.10665786018823886
],
[
-76.94426406871193,
0.015735931288071547
],
[
-76.85334213981176,
-0.05888176738152712
],
[
-76.74961005941906,
-0.11432771950677184
],
[
-76.63705419320968,
-0.14847116824193812
],
[
-76.52,
-0.15999999999999998
],
[
-76.40294580679031,
-0.14847116824193823
],
[
-76.29038994058094,
-0.11432771950677195
],
[
-76.18665786018823,
-0.05888176738152723
],
[
-76.09573593128806,
0.01573593128807138
],
[
-76.02111823261846,
0.1066578601882387
],
[
-75.96567228049322,
0.2103899405809458
],
[
-75.93152883175806,
0.3229458067903228
],
[
-75.92,
0.43999999999999984
]
]
]
}
},
{
"type": "Feature",
"properties": {
"DPTO_CCDGO": "88",
"DPTO_CNMBR": "San Andrés"
},
"geometry": {
"type": "Polygon",
"coordinates": [
[
[
-81.10000000000001,
12.58
],
[
-81.11152883175806,
12.697054193209677
],
[
-81.14567228049323,
12.809610059419054
],
[
-81.20111823261847,
12.91334213981176
],
[
-81.27573593128807,
13.004264068711928
],
[
-81.36665786018824,
13.078881767381528
],
[
-81.47038994058094,
13.134327719506771
],
[
-81.58294580679032,
13.168471168241938
],
[
-81.7,
13.18
],
[
-81.81705419320969,
13.168471168241938
],
[
-81.92961005941906,
13.134327719506771
],
[
-82.03334213981177,
13.078881767381528
],
[
-82.12426406871194,
13.004264068711928
],
[
-82.19888176738154,
12.91334213981176
],
[
-82.25432771950678,
12.809610059419054
],
[
-82.28847116824194,
12.697054193209677
],
[
-82.3,
12.58
],
[
-82.28847116824194,
12.462945806790323
],
[
-82.25432771950678,
12.350389940580946
],
[
-82.19888176738154,
12.24665786018824
],
[
-82.12426406871194,
12.155735931288072
],
[
-82.03334213981177,
12.081118232618472
],
[
-81.92961005941906,
12.025672280493229
],
[
-81.81705419320969,
11.991528831758062
],
[
-81.7,
11.98
],
[
-81.58294580679032,
11.991528831758062
],
[
-81.47038994058094,
12.025672280493229
],
[
-81.36665786018824,
12.081118232618472
],
[
-81.27573593128807,
12.15573593128807
],
[
-81.20111823261847,
12.24665786018824
],
[
-81.14567228049323,
12.350389940580946
],
[
-81.11152883175806,
12.462945806790323
],
[
-81.10000000000001,
12.58
]
]
]
}
},
{
"type": "Feature",
"properties": {
"DPTO_CCDGO": "91",
"DPTO_CNMBR": "Amazonas"
},
"geometry": {
"type": "Polygon",
"coordinates": [
[
[
-70.97,
-1.44
],
[
-70.98152883175806,
-1.322945806790323
],
[
-71.01567228049322,
-1.2103899405809462
],
[
-71.07111823261846,
-1.1066578601882386
],
[
-71.14573593128806,
-1.0157359312880714
],
[
-71.23665786018823,
-0.9411182326184728
],
[
-71.34038994058093,
-0.8856722804932279
],
[
-71.45294580679031,
-0.8515288317580617
],
[
-71.57,
-0.84
],
[
-71.68705419320968,
-0.8515288317580617
],
[
-71.79961005941905,
-0.8856722804932279
],
[
-71.90334213981176,
-0.9411182326184727
],
[
-71.99426406871193,
-1.0157359312880714
],
[
-72.06888176738153,
-1.1066578601882386
],
[
-72.12432771950677,
-1.210389940580946
],
[
-72.15847116824193,
-1.3229458067903228
],
[
-72.16999999999999,
-1.44
],
[
-72.15847116824193,
-1.5570541932096769
],
[
-72.12432771950677,
-1.6696100594190537
],
[
-72.06888176738153,
-1.773342139811761
],
[
-71.99426406871193,
-1.8642640687119285
],
[
-71.90334213981176,
-1.938881767381527
],
[
-71.79961005941905,
-1.9943277195067717
],
[
-71.68705419320968,
-2.0284711682419383
],
[
-71.57,
-2.04
],
[
-71.45294580679031,
-2.0284711682419383
],
[
-71.34038994058093,
-1.994327719506772
],
[
-71.23665786018823,
-1.938881767381527
],
[
-71.14573593128806,
-1.8642640687119285
],
[
-71.07111823261846,
-1.7733421398117613
],
[
-71.01567228049322,
-1.6696100594190542
],
[
-70.98152883175806,
-1.557054193209677
],
[
-70.97,
-1.4400000000000002
]
]
]
}
},
{
"type": "Feature",
"properties": {
"DPTO_CCDGO": "94",
"DPTO_CNMBR": "Guainía"
},
"geometry": {
"type": "Polygon",
"coordinates": [
[
[
-67.93,
2.56
],
[
-67.94152883175806,
2.677054193209677
],
[
-67.97567228049323,
2.789610059419054
],
[
-68.03111823261847,
2.8933421398117614
],
[
-68.10573593128807,
2.9842640687119286
],
[
-68.19665786018824,
3.058881767381527
],
[
-68.30038994058094,
3.1143277195067722
],
[
-68.41294580679032,
3.1484711682419384
],
[
-68.53,
3.16
],
[
-68.64705419320968,
3.1484711682419384
],
[
-68.75961005941906,
3.1143277195067722
],
[
-68.86334213981176,
3.058881767381527
],
[
-68.95426406871194,
2.9842640687119286
],
[
-69.02888176738153,
2.8933421398117614
],
[
-69.08432771950677,
2.789610059419054
],
[
-69.11847116824194,
2.677054193209677
],
[
-69.13,
2.56
],
[
-69.11847116824194,
2.442945806790323
],
[
-69.08432771950677,
2.3303899405809463
],
[
-69.02888176738153,
2.2266578601882387
],
[
-68.95426406871194,
2.1357359312880715
],
[
-68.86334213981176,
2.061118232618473
],
[
-68.75961005941906,
2.0056722804932283
],
[
-68.64705419320968,
1.971528831758062
],
[
-68.53,
1.96
],
[
-68.41294580679032,
1.9715288317580617
],
[
-68.30038994058094,
2.0056722804932283
],
[
-68.19665786018824,
2.061118232618473
],
[
-68.10573593128807,
2.1357359312880715
],
[
-68.03111823261847,
2.2266578601882387
],
[
-67.97567228049323,
2.330389940580946
],
[
-67.94152883175806,
2.442945806790323
],
[
-67.93,
2.56
]
]
]
}
},
{
"type": "Feature",
"properties": {
"DPTO_CCDGO": "95",
"DPTO_CNMBR": "Guaviare"
},
"geometry": {
"type": "Polygon",
"coordinates": [
[
[
-72.09,
2.04
],
[
-72.10152883175806,
2.157054193209677
],
[
-72.13567228049322,
2.269610059419054
],
[
-72.19111823261846,
2.3733421398117613
],
[
-72.26573593128806,
2.4642640687119286
],
[
-72.35665786018824,
2.538881767381527
],
[
-72.46038994058094,
2.594327719506772
],
[
-72.57294580679032,
2.6284711682419384
],
[
-72.69,
2.64
],
[
-72.80705419320968,
2.6284711682419384
],
[
-72.91961005941906,
2.594327719506772
],
[
-73.02334213981176,
2.538881767381527
],
[
-73.11426406871193,
2.4642640687119286
],
[
-73.18888176738153,
2.3733421398117613
],
[
-73.24432771950677,
2.269610059419054
],
[
-73.27847116824194,
2.157054193209677
],
[
-73.28999999999999,
2.04
],
[
-73.27847116824194,
1.9229458067903231
],
[
-73.24432771950677,
1.8103899405809463
],
[
-73.18888176738153,
1.706657860188239
],
[
-73.11426406871193,
1.6157359312880715
],
[
-73.02334213981176,
1.541118232618473
],
[
-72.91961005941906,
1.4856722804932283
],
[
-72.80705419320968,
1.451528831758062
],
[
-72.69,
1.44
],
[
-72.57294580679032,
1.4515288317580617
],
[
-72.46038994058094,
1.485672280493228
],
[
-72.35665786018824,
1.541118232618473
],
[
-72.26573593128806,
1.6157359312880715
],
[
-72.19111823261846,
1.7066578601882387
],
[
-72.13567228049322,
1.8103899405809458
],
[
-72.10152883175806,
1.922945806790323
],
[
-72.09,
2.04
]
]
]
}
},
{
"type": "Feature",
"properties": {
"DPTO_CCDGO": "97",
"DPTO_CNMBR": "Vaupés"
},
"geometry": {
"type": "Polygon",
"coordinates": [
[
[
-69.63000000000001,
0.85
],
[
-69.64152883175807,
0.9670541932096769
],
[
-69.67567228049323,
1.0796100594190539
],
[
-69.73111823261847,
1.1833421398117614
],
[
-69.80573593128807,
1.2742640687119284
],
[
-69.89665786018824,
1.3488817673815272
],
[
-70.00038994058094,
1.404327719506772
],
[
-70.11294580679032,
1.4384711682419382
],
[
-70.23,
1.45
],
[
-70.34705419320969,
1.4384711682419382
],
[
-70.45961005941906,
1.404327719506772
],
[
-70.56334213981177,
1.3488817673815272
],
[
-70.65426406871194,
1.2742640687119284
],
[
-70.72888176738154,
1.1833421398117614
],
[
-70.78432771950678,
1.0796100594190539
],
[
-70.81847116824194,
0.9670541932096771
],
[
-70.83,
0.8500000000000001
],
[
-70.81847116824194,
0.732945806790323
],
[
-70.78432771950678,
0.6203899405809462
],
[
-70.72888176738154,
0.5166578601882388
],
[
-70.65426406871194,
0.4257359312880715
],
[
-70.56334213981177,
0.35111823261847286
],
[
-70.45961005941906,
0.29567228049322813
],
[
-70.34705419320969,
0.26152883175806185
],
[
-70.23,
0.25
],
[
-70.11294580679032,
0.26152883175806174
],
[
-70.00038994058094,
0.295672280493228
],
[
-69.89665786018824,
0.35111823261847275
],
[
-69.80573593128807,
0.42573593128807136
],
[
-69.73111823261847,
0.5166578601882387
],
[
-69.67567228049323,
0.6203899405809458
],
[
-69.64152883175807,
0.7329458067903227
],
[
-69.63000000000001,
0.8499999999999999
]
]
]
}
},
{
"type": "Feature",
"properties": {
"DPTO_CCDGO": "99",
"DPTO_CNMBR": "Vichada"
},
"geometry": {
"type": "Polygon",
"coordinates": [
[
[
-68.69000000000001,
4.42
],
[
-68.70152883175807,
4.537054193209677
],
[
-68.73567228049323,
4.649610059419054
],
[
-68.79111823261847,
4.753342139811761
],
[
-68.86573593128807,
4.8442640687119285
],
[
-68.95665786018824,
4.918881767381527
],
[
-69.06038994058095,
4.974327719506772
],
[
-69.17294580679032,
5.008471168241938
],
[
-69.29,
5.02
],
[
-69.40705419320969,
5.008471168241938
],
[
-69.51961005941907,
4.974327719506772
],
[
-69.62334213981177,
4.918881767381527
],
[
-69.71426406871194,
4.8442640687119285
],
[
-69.78888176738154,
4.753342139811761
],
[
-69.84432771950678,
4.649610059419054
],
[
-69.87847116824194,
4.537054193209677
],
[
-69.89,
4.42
],
[
-69.87847116824194,
4.302945806790323
],
[
-69.84432771950678,
4.190389940580946
],
[
-69.78888176738154,
4.086657860188239
],
[
-69.71426406871194,
3.9957359312880714
],
[
-69.62334213981177,
3.921118232618473
],
[
-69.51961005941907,
3.865672280493228
],
[
-69.40705419320969,
3.831528831758062
],
[
-69.29,
3.82
],
[
-69.17294580679032,
3.8315288317580616
],
[
-69.06038994058095,
3.8656722804932278
],
[
-68.95665786018824,
3.921118232618473
],
[
-68.86573593128807,
3.9957359312880714
],
[
-68.79111823261847,
4.086657860188239
],
[
-68.73567228049323,
4.190389940580946
],
[
-68.70152883175807,
4.302945806790323
],
[
-68.69000000000001,
4.42
]
]
]
}
}
]
}